GLOBALSTAR M035         
1 25851U 99037A   25107.59845450  .00000005  00000+0  25971-2 0  9994
2 25851  51.9932 190.0852 0013950 241.3923 259.4230 11.04537640 89563
GLOBALSTAR M032         
1 25852U 99037B   25107.05609342 -.00000109  00000+0 -13676-2 0  9990
2 25852  51.9996  20.7060 0012490  64.5057 295.7034 11.19062792127942
GLOBALSTAR M051         
1 25853U 99037C   25107.58345380 -.00000073  00000+0 -32194-4 0  9996
2 25853  51.9779 187.0922 0001123 127.0797 233.0116 11.42204867125461
GLOBALSTAR M030         
1 25854U 99037D   25106.99065022 -.00000013  00000+0  13184-2 0  9992
2 25854  51.9919 358.5193 0003191 308.9557  51.0975 11.55104740142973
GLOBALSTAR M048         
1 25872U 99041A   25107.30137353 -.00000078  00000+0 -21549-3 0  9997
2 25872  51.9334 120.4507 0013071  79.8312  37.5667 11.33856244118070
GLOBALSTAR M026         
1 25873U 99041B   25106.84544497  .00000090  00000+0  56741-2 0  9990
2 25873  52.0028 310.3723 0002130 141.7724 347.5123 11.06836348141691
GLOBALSTAR M043         
1 25874U 99041C   25107.62809983 -.00000091  00000+0 -69467-3 0  9995
2 25874  51.9393 224.9078 0013810 206.6506 252.8700 11.25691981116058
GLOBALSTAR M028         
1 25875U 99041D   25107.09078852 -.00000050  00000+0  32604-3 0  9997
2 25875  51.9657  15.2430 0062870 299.3097  60.1492 12.50581094182535
